ONEWEB-0130             
1 47276U 20100U   26187.93529504 -.00000365  00000+0 -10505-2 0  9998
2 47276  87.8959 346.7260 0001874  98.0001 262.1340 13.12442786267236
ONEWEB-0131             
1 47277U 20100V   26188.38932981 -.00000370  00000+0 -10639-2 0  9990
2 47277  87.8953 346.6514 0001758  99.8954 260.2373 13.12441798267337
ONEWEB-0132             
1 47278U 20100W   26188.41813264  .00000292  00000+0  77655-3 0  9990
2 47278  87.8956 346.6479 0001791  96.2045 263.9288 13.12442905267235
ONEWEB-0133             
1 47279U 20100X   26188.43493703  .00000393  00000+0  10558-2 0  9995
2 47279  87.8969 346.6227 0001700  96.5281 263.6041 13.12442712267393
ONEWEB-0134             
1 47280U 20100Y   26188.40457388 -.00000147  00000+0 -44511-3 0  9999
2 47280  87.8966 346.6259 0001956 102.1624 257.9724 13.12443265267360
ONEWEB-0135             
1 47281U 20100Z   26188.37577470 -.00000062  00000+0 -20841-3 0  9997
2 47281  87.8953 346.6521 0001874 105.0338 255.0999 13.12441871267388
ONEWEB-0136             
1 47282U 20100AA  26187.93698492 -.00000363  00000+0 -10450-2 0  9995
2 47282  87.8961 346.7225 0001991 103.6301 256.5050 13.12443113267255
ONEWEB-0137             
1 47283U 20100AB  26188.42830141  .00000470  00000+0  12711-2 0  9999
2 47283  87.8967 346.6356 0001855  90.2249 269.9092 13.12443275267227
ONEWEB-0138             
1 47284U 20100AC  26188.40627275 -.00000095  00000+0 -29959-3 0  9998
2 47284  87.8964 346.6446 0002002  99.6690 260.4665 13.12443290267301
ONEWEB-0139             
1 47285U 20100AD  26188.37084023  .00000089  00000+0  21236-3 0  9994
2 47285  87.8962 346.6378 0001903  95.2848 264.8498 13.12441634267379
ONEWEB-0140             
1 47286U 20100AE  26187.94376442 -.00000225  00000+0 -66199-3 0  9997
2 47286  87.8964 346.7140 0001701  97.0250 263.1072 13.12443568267281
ONEWEB-0141             
1 47287U 20100AF  26188.37055658  .00000071  00000+0  16182-3 0  9993
2 47287  87.8963 346.6336 0001975  86.9002 273.2352 13.12442045267329
ONEWEB-0142             
1 47288U 20100AG  26188.43522321  .00000406  00000+0  10944-2 0  9998
2 47288  87.8959 346.6414 0002218  89.2103 270.9280 13.12443258267322
ONEWEB-0143             
1 47289U 20100AH  26188.36900292  .00000157  00000+0  40190-3 0  9998
2 47289  87.8959 346.6541 0001860  94.0223 266.1119 13.12441938267290
ONEWEB-0144             
1 47290U 20100AJ  26188.41644121  .00000269  00000+0  71306-3 0  9999
2 47290  87.8965 346.6198 0002185  99.6239 260.5136 13.12443316267228
ONEWEB-0145             
1 47291U 20100AK  26188.38763256 -.00000352  00000+0 -10142-2 0  9992
2 47291  87.8954 346.6512 0001934  96.1067 264.0282 13.12442287267417
ONEWEB-0146             
1 47292U 20100AL  26187.92682262 -.00000351  00000+0 -10109-2 0  9991
2 47292  87.8963 346.7360 0001490  93.1257 267.0042 13.12442310267262
ONEWEB-0147             
1 47293U 20100AM  26188.42660970  .00000441  00000+0  11908-2 0  9996
2 47293  87.8964 346.6188 0001821 100.1127 260.0207 13.12443103267227
ONEWEB-0115             
1 48042U 21025A   26188.59130041  .00000260  00000+0  67808-3 0  9995
2 48042  87.8979 316.1628 0001956 101.5353 258.5996 13.13471192256272
ONEWEB-0152             
1 48043U 21025B   26187.84307383 -.00000302  00000+0 -86099-3 0  9990
2 48043  87.8984 316.3089 0001779 100.2003 259.9327 13.13469104256131
ONEWEB-0153             
1 48044U 21025C   26187.89724356  .00000191  00000+0  48714-3 0  9995
2 48044  87.8975 316.2995 0001988  98.8314 261.3040 13.13468770256133
ONEWEB-0154             
1 48045U 21025D   26188.35092847  .00000340  00000+0  89528-3 0  9995
2 48045  87.8981 316.2078 0001875 105.5036 254.6300 13.13469721256158
ONEWEB-0116             
1 48046U 21025E   26188.31368053 -.00000185  00000+0 -54177-3 0  9998
2 48046  87.8982 316.2128 0001764 100.6396 259.4932 13.13470050256294
ONEWEB-0150             
1 48047U 21025F   26188.36616388  .00000033  00000+0  54946-4 0  9996
2 48047  87.8982 316.1994 0001936  93.1470 266.9880 13.13469131256197
ONEWEB-0107             
1 48048U 21025G   26188.29169265  .00000407  00000+0  10801-2 0  9991
2 48048  87.8984 316.2104 0002088  99.0890 261.0475 13.13469268256168
ONEWEB-0101             
1 48049U 21025H   26188.33061956  .00000151  00000+0  37979-3 0  9997
2 48049  87.8973 316.2163 0001981 102.3579 257.7772 13.13471061256149
ONEWEB-0113             
1 48050U 21025J   26187.89157251  .00000256  00000+0  66179-3 0  9993
2 48050  87.8978 316.2119 0001848  95.1920 264.9420 13.13891777256193
ONEWEB-0112             
1 48051U 21025K   26188.37293049 -.00000115  00000+0 -35002-3 0  9991
2 48051  87.8985 316.1924 0002091 104.0105 256.1257 13.13469069256243
ONEWEB-0156             
1 48052U 21025L   26188.30522188 -.00000207  00000+0 -60200-3 0  9994
2 48052  87.8983 316.2156 0001998  97.1698 262.9658 13.13471844256215
ONEWEB-0161             
1 48053U 21025M   26188.35600075  .00000262  00000+0  68190-3 0  9997
2 48053  87.8981 316.2064 0002084  96.6989 263.4377 13.13468811256153
