OBJECT_NAME,OBJECT_ID,EPOCH,MEAN_MOTION,ECCENTRICITY,INCLINATION,RA_OF_ASC_NODE,ARG_OF_PERICENTER,MEAN_ANOMALY,EPHEMERIS_TYPE,CLASSIFICATION_TYPE,NORAD_CAT_ID,ELEMENT_SET_NO,REV_AT_EPOCH,BSTAR,MEAN_MOTION_DOT,MEAN_MOTION_DDOT
ONEWEB-0130,2020-100U,2026-07-06T22:26:49.491456,13.12442786,.00018746,87.8959,346.7260,98.0001,262.1340,0,U,47276,999,26723,-.10505219E-2,-.365E-5,0
ONEWEB-0131,2020-100V,2026-07-07T09:20:38.095584,13.12441798,.00017585,87.8953,346.6514,99.8954,260.2373,0,U,47277,999,26733,-.10638857E-2,-.37E-5,0
ONEWEB-0132,2020-100W,2026-07-07T10:02:06.660096,13.12442905,.00017914,87.8956,346.6479,96.2045,263.9288,0,U,47278,999,26723,.77654578E-3,.292E-5,0
ONEWEB-0133,2020-100X,2026-07-07T10:26:18.559392,13.12442712,.00017009,87.8969,346.6227,96.5281,263.6041,0,U,47279,999,26739,.1055774E-2,.393E-5,0
ONEWEB-0134,2020-100Y,2026-07-07T09:42:35.183232,13.12443265,.00019569,87.8966,346.6259,102.1624,257.9724,0,U,47280,999,26736,-.44511349E-3,-.147E-5,0
ONEWEB-0135,2020-100Z,2026-07-07T09:01:06.934080,13.12441871,.00018745,87.8953,346.6521,105.0338,255.0999,0,U,47281,999,26738,-.20841087E-3,-.62E-6,0
ONEWEB-0136,2020-100AA,2026-07-06T22:29:15.497088,13.12443113,.00019912,87.8961,346.7225,103.6301,256.5050,0,U,47282,999,26725,-.10450152E-2,-.363E-5,0
ONEWEB-0137,2020-100AB,2026-07-07T10:16:45.241824,13.12443275,.00018558,87.8967,346.6356,90.2249,269.9092,0,U,47283,999,26722,.12710982E-2,.47E-5,0
ONEWEB-0138,2020-100AC,2026-07-07T09:45:01.965600,13.12443290,.00020021,87.8964,346.6446,99.6690,260.4665,0,U,47284,999,26730,-.29959444E-3,-.95E-6,0
ONEWEB-0139,2020-100AD,2026-07-07T08:54:00.595872,13.12441634,.00019033,87.8962,346.6378,95.2848,264.8498,0,U,47285,999,26737,.21236464E-3,.89E-6,0
ONEWEB-0140,2020-100AE,2026-07-06T22:39:01.245888,13.12443568,.00017016,87.8964,346.7140,97.0250,263.1072,0,U,47286,999,26728,-.66198898E-3,-.225E-5,0
ONEWEB-0141,2020-100AF,2026-07-07T08:53:36.088512,13.12442045,.00019751,87.8963,346.6336,86.9002,273.2352,0,U,47287,999,26732,.16182189E-3,.71E-6,0
ONEWEB-0142,2020-100AG,2026-07-07T10:26:43.285344,13.12443258,.00022189,87.8959,346.6414,89.2103,270.9280,0,U,47288,999,26732,.10943909E-2,.406E-5,0
ONEWEB-0143,2020-100AH,2026-07-07T08:51:21.852288,13.12441938,.00018607,87.8959,346.6541,94.0223,266.1119,0,U,47289,999,26729,.40190238E-3,.157E-5,0
ONEWEB-0144,2020-100AJ,2026-07-07T09:59:40.520544,13.12443316,.0002185,87.8965,346.6198,99.6239,260.5136,0,U,47290,999,26722,.71306268E-3,.269E-5,0
ONEWEB-0145,2020-100AK,2026-07-07T09:18:11.453184,13.12442287,.00019341,87.8954,346.6512,96.1067,264.0282,0,U,47291,999,26741,-.10142022E-2,-.352E-5,0
ONEWEB-0146,2020-100AL,2026-07-06T22:14:37.474368,13.12442310,.00014909,87.8963,346.7360,93.1257,267.0042,0,U,47292,999,26726,-.10109477E-2,-.351E-5,0
ONEWEB-0147,2020-100AM,2026-07-07T10:14:19.078080,13.12443103,.00018215,87.8964,346.6188,100.1127,260.0207,0,U,47293,999,26722,.1190818E-2,.441E-5,0
ONEWEB-0115,2021-025A,2026-07-07T14:11:28.355424,13.13471192,.00019569,87.8979,316.1628,101.5353,258.5996,0,U,48042,999,25627,.67807834E-3,.26E-5,0
ONEWEB-0152,2021-025B,2026-07-06T20:14:01.578912,13.13469104,.00017791,87.8984,316.3089,100.2003,259.9327,0,U,48043,999,25613,-.86098689E-3,-.302E-5,0
ONEWEB-0153,2021-025C,2026-07-06T21:32:01.843584,13.13468770,.00019885,87.8975,316.2995,98.8314,261.3040,0,U,48044,999,25613,.48714099E-3,.191E-5,0
ONEWEB-0154,2021-025D,2026-07-07T08:25:20.219808,13.13469721,.00018754,87.8981,316.2078,105.5036,254.6300,0,U,48045,999,25615,.89528159E-3,.34E-5,0
ONEWEB-0116,2021-025E,2026-07-07T07:31:41.997792,13.13470050,.00017642,87.8982,316.2128,100.6396,259.4932,0,U,48046,999,25629,-.54176639E-3,-.185E-5,0
ONEWEB-0150,2021-025F,2026-07-07T08:47:16.559232,13.13469131,.00019364,87.8982,316.1994,93.1470,266.9880,0,U,48047,999,25619,.54945969E-4,.33E-6,0
ONEWEB-0107,2021-025G,2026-07-07T07:00:02.244960,13.13469268,.00020881,87.8984,316.2104,99.0890,261.0475,0,U,48048,999,25616,.10800901E-2,.407E-5,0
ONEWEB-0101,2021-025H,2026-07-07T07:56:05.529984,13.13471061,.00019816,87.8973,316.2163,102.3579,257.7772,0,U,48049,999,25614,.3797909E-3,.151E-5,0
ONEWEB-0113,2021-025J,2026-07-06T21:23:51.864864,13.13891777,.0001848,87.8978,316.2119,95.1920,264.9420,0,U,48050,999,25619,.66179418E-3,.256E-5,0
ONEWEB-0112,2021-025K,2026-07-07T08:57:01.194336,13.13469069,.00020913,87.8985,316.1924,104.0105,256.1257,0,U,48051,999,25624,-.35002318E-3,-.115E-5,0
ONEWEB-0156,2021-025L,2026-07-07T07:19:31.170432,13.13471844,.00019987,87.8983,316.2156,97.1698,262.9658,0,U,48052,999,25621,-.60199583E-3,-.207E-5,0
ONEWEB-0161,2021-025M,2026-07-07T08:32:38.464800,13.13468811,.00020847,87.8981,316.2064,96.6989,263.4377,0,U,48053,999,25615,.68189635E-3,.262E-5,0
